0 COSMOS 1364
1 13167U 82040H   13282.97396124 -.00000047  00000-0 -23021-3 0  4404
2 13167 074.0125 226.8299 0032230 192.3998 231.9111 12.41828789425029
0 COSMOS 1364
1 13167U 82040H   13287.17174111 -.00000008  00000-0  52354-4 0  4421
2 13167 074.0130 221.3305 0032145 186.1388 278.4931 12.41828550425541
0 COSMOS 1364
1 13167U 82040H   13289.27753762  .00000014  00000-0  21813-3 0  4431
2 13167 074.0131 218.5719 0032119 183.0818 332.5756 12.41828256425803
0 COSMOS 1364
1 13167U 82040H   13291.29441123  .00000015  00000-0  22517-3 0  4445
2 13167 074.0130 215.9299 0032086 180.0817 349.1927 12.41828353426055
0 COSMOS 1364
1 13167U 82040H   13293.84681052 -.00000012  00000-0  23867-4 0  4454
2 13167 074.0128 212.5863 0032047 176.2591 239.9517 12.41828726426375
0 COSMOS 1364
1 13167U 82040H   13296.20793221 -.00000026  00000-0 -79062-4 0  4464
2 13167 074.0128 209.4933 0032012 172.7811 355.5300 12.41828922426661
